{
    "links": {
        "self": "http://www.neowsapp.com/rest/v1/neo/54017166?api_key=iIulBulltgU6a56xZRHN4H3l9WmuAYTsLGpBGhQ2"
    },
    "id": "54017166",
    "neo_reference_id": "54017166",
    "name": "(2020 KV2)",
    "designation": "2020 KV2",
    "nasa_jpl_url": "http://ssd.jpl.nasa.gov/sbdb.cgi?sstr=54017166",
    "absolute_magnitude_h": 25.882,
    "estimated_diameter": {
        "kilometers": {
            "estimated_diameter_min": 0.0177074073,
            "estimated_diameter_max": 0.0395949664
        },
        "meters": {
            "estimated_diameter_min": 17.7074072879,
            "estimated_diameter_max": 39.5949664011
        },
        "miles": {
            "estimated_diameter_min": 0.0110028694,
            "estimated_diameter_max": 0.0246031639
        },
        "feet": {
            "estimated_diameter_min": 58.0951701266,
            "estimated_diameter_max": 129.9047495674
        }
    },
    "is_potentially_hazardous_asteroid": false,
    "close_approach_data": [
        {
            "close_approach_date": "2020-05-20",
            "close_approach_date_full": "2020-May-20 08:56",
            "epoch_date_close_approach": 1589964960000,
            "relative_velocity": {
                "kilometers_per_second": "7.8819088905",
                "kilometers_per_hour": "28374.8720057372",
                "miles_per_hour": "17631.0419971204"
            },
            "miss_distance": {
                "astronomical": "0.0497135986",
                "lunar": "19.3385898554",
                "kilometers": "7437048.460594982",
                "miles": "4621167.6270234716"
            },
            "orbiting_body": "Earth"
        }
    ],
    "orbital_data": {
        "orbit_id": "4",
        "orbit_determination_date": "2020-11-25 05:21:24",
        "first_observation_date": "2020-05-19",
        "last_observation_date": "2020-05-24",
        "data_arc_in_days": 5,
        "observations_used": 28,
        "orbit_uncertainty": "8",
        "minimum_orbit_intersection": ".04959",
        "jupiter_tisserand_invariant": "3.689",
        "epoch_osculation": "2458990.5",
        "eccentricity": ".4825974990858122",
        "semi_major_axis": "1.99176825804723",
        "inclination": "6.702145047810609",
        "ascending_node_longitude": "223.0679260917592",
        "orbital_period": "1026.730911163507",
        "perihelion_distance": "1.030545877955132",
        "perihelion_argument": "34.97867650449465",
        "aphelion_distance": "2.952990638139327",
        "perihelion_time": "2459005.975371014387",
        "mean_anomaly": "354.5739107446702",
        "mean_motion": ".350627409855658",
        "equinox": "J2000",
        "orbit_class": {
            "orbit_class_type": "AMO",
            "orbit_class_description": "Near-Earth asteroid orbits similar to that of 1221 Amor",
            "orbit_class_range": "1.017 AU < q (perihelion) < 1.3 AU"
        }
    },
    "is_sentry_object": false
}